satname,norad_id,inclination_deg,eccentricity,mean_motion_rev_per_day,perigee_km,apogee_km,l1,l2
STARLINK-1554,46055,53.1607,0.0001405,15.31712015,469.74191718427846,471.66644155568247,1 46055U 20055AE  26142.38475715  .00001164  00000+0  49265-4 0  9998,2 46055  53.1607 131.2904 0001405  93.6060 266.5102 15.31712015320360
STARLINK-1564,46058,53.1605,0.0001452,15.30194161,474.2373944243427,476.22761292820906,1 46058U 20055AH  26142.68460008  .00001474  00000+0  61881-4 0  9995,2 46058  53.1605 130.6675 0001452  84.6487 275.4680 15.30194161320392
STARLINK-1570,46059,53.1601,0.00017,15.31699378,469.57753997151485,471.9061587803026,1 46059U 20055AJ  26142.67372118 -.00000440  00000+0 -24146-5 0  9997,2 46059  53.1601 129.8268 0001700  94.9787 265.1408 15.31699378320362
STARLINK-1572,46060,53.1596,0.0001287,15.3019312,474.35358288100815,476.1176409913205,1 46060U 20055AK  26142.66559713 -.00000076  00000+0  95714-5 0  9999,2 46060  53.1596 130.5058 0001287  94.1842 265.9306 15.30193120320365
STARLINK-1573,46061,53.1594,0.0001144,15.31702692,469.9484599152529,471.5154811357079,1 46061U 20055AL  26142.65973448 -.00000062  00000+0  97677-5 0  9999,2 46061  53.1594 129.8604 0001144  93.1177 266.9955 15.31702692320401
STARLINK-1577,46063,53.1603,0.0001399,15.31692637,469.8037830711637,471.7201049957039,1 46063U 20055AN  26142.68769361  .00001390  00000+0  56551-4 0  9990,2 46063  53.1603 129.7259 0001399  90.3062 269.8099 15.31692637320401
STARLINK-1583,46064,53.1604,0.0001473,15.30187952,474.2415387529818,476.26054687039414,1 46064U 20055AP  26142.69505422  .00001645  00000+0  67676-4 0  9991,2 46064  53.1604 130.1173 0001473  91.6995 268.4175 15.30187952320392
STARLINK-1536,46070,53.1617,0.0001294,15.31702757,469.84553314472487,471.61802038415226,1 46070U 20055AV  26142.63778331 -.00000302  00000+0  20244-5 0  9994,2 46070  53.1617 117.8438 0001294  87.3628 272.7521 15.31702757320564
STARLINK-1542,46073,53.1632,0.000132,15.31703861,469.824435565607,471.63253605386035,1 46073U 20055AY  26142.66215457  .00000769  00000+0  36536-4 0  9991,2 46073  53.1632 120.6975 0001320  91.4982 268.6170 15.31703861320517
STARLINK-1549,46074,53.0526,0.0004122,15.27955233,479.09802553153713,484.7534612571908,1 46074U 20055AZ  26142.65467505  .00027879  00000+0  10172-2 0  9991,2 46074  53.0526 117.7340 0004122  53.3778 306.7598 15.27955233320543
STARLINK-1551,46075,53.1616,0.0001626,15.30162171,474.2136489089562,476.4423957342151,1 46075U 20055BA  26142.21833664  .00010393  00000+0  36296-3 0  9996,2 46075  53.1616 119.5299 0001626  85.2710 274.8477 15.30162171320494
STARLINK-1552,46076,53.1612,0.0001344,15.3171161,469.78490222162327,471.62587105515286,1 46076U 20055BB  26142.35374742  .00000867  00000+0  39679-4 0  9993,2 46076  53.1612 118.6863 0001344  97.1292 262.9862 15.31711610320509
STARLINK-1559,46077,53.0232,0.0003061,15.36551376,454.2243331154814,458.4083854620376,1 46077U 20055BC  26142.54235453  .00042951  00000+0  11903-2 0  9998,2 46077  53.0232  88.2048 0003061  49.5452 310.5817 15.36551376320912
STARLINK-1566,46079,53.1596,0.0001185,15.31704243,469.91575666750214,471.53893751776286,1 46079U 20055BE  26142.22789394  .00000977  00000+0  43228-4 0  9992,2 46079  53.1596 119.1236 0001185  91.2854 268.8283 15.31704243320501
STARLINK-1568,46080,53.0595,0.0004384,15.52534296,406.353985615875,412.30523634038036,1 46080U 20055BF  26142.40753875  .00034014  00000+0  55012-3 0  9991,2 46080  53.0595  39.5485 0004384  48.4533 311.6852 15.52534296321629
STARLINK-1578,46082,53.1601,0.000143,15.31710724,469.7286428872276,471.6874125651566,1 46082U 20055BH  26142.62378002 -.00000023  00000+0  11013-4 0  9990,2 46082  53.1601 117.7971 0001430 116.9731 243.1416 15.31710724320554
STARLINK-1579,46083,53.1614,0.0001329,15.31712288,469.7931546973614,471.61357646653323,1 46083U 20055BJ  26142.08806982  .00000150  00000+0  16586-4 0  9994,2 46083  53.1614 119.8281 0001329  89.6781 270.4373 15.31712288320477
STARLINK-1622,46128,53.0163,0.0006623,15.78940711,328.9956817013499,337.88583760178426,1 46128U 20057M   26142.66711554  .00115309  00000+0  63247-3 0  9998,2 46128  53.0163 217.4531 0006623   8.8738 351.2398 15.78940711318999
STARLINK-1623,46129,53.0425,0.0003732,15.71103261,353.2296335215997,358.2558013426906,1 46129U 20057N   26142.73263858  .00084834  00000+0  65837-3 0  9991,2 46129  53.0425 254.2291 0003732 338.8863  21.1999 15.71103261318495
STARLINK-1624,46130,53.024,0.0013249,16.12537786,231.12238400694332,248.65883356470295,1 46130U 20057P   26142.63659437  .01580025  19190-2  14002-2 0  9998,2 46130  53.0240 219.3442 0013249 338.5096  21.5381 16.12537786320212
STARLINK-1596,46141,53.0372,0.000586,15.56556362,393.6616464141107,401.60284797181976,1 46141U 20057AA  26142.66696661  .00089658  00000+0  12323-2 0  9999,2 46141  53.0372 235.2971 0005860 332.9511  27.1193 15.56556362318751
STARLINK-1597,46142,53.0442,0.0001878,15.70747772,355.4938659428444,358.0234927600086,1 46142U 20057AB  26142.70661887  .00088187  00000+0  69433-3 0  9998,2 46142  53.0442 294.0716 0001878  31.0251 329.0876 15.70747772317926
STARLINK-1606,46144,53.0369,0.0006408,15.829722,317.74714882659737,326.3340964677818,1 46144U 20057AD  26142.75002315  .00120299  00000+0  54765-3 0  9993,2 46144  53.0369 248.5561 0006408 317.1906 285.4700 15.82972200  6012
STARLINK-1608,46146,53.1617,0.000117,15.34246907,462.3578711519003,463.95873425273294,1 46146U 20057AF  26141.92448995  .00050472  00000+0  15022-2 0  9998,2 46146  53.1617 328.3976 0001170 249.8921 110.1955 15.34246907317406
STARLINK-1667,46155,53.0131,0.0008123,15.82636417,317.5449688306189,328.4316169814747,1 46155U 20057AQ  26142.75002315  .00143141  00000+0  65907-3 0  9996,2 46155  53.0131 216.7846 0008123   6.4892 220.0149 15.82636417  6011
STARLINK-1545,46156,53.0402,0.0004863,15.77652078,333.8293420473565,340.36057665102,1 46156U 20057AR  26142.75002315  .00124098  00000+0  72058-3 0  9992,2 46156  53.0402 252.3553 0004863 294.6024 239.5553 15.77652078  6007
STARLINK-1595,46159,53.0437,0.0001565,15.6895938,360.82078188616197,362.9304058280386,1 46159U 20057AU  26142.71808027  .00074561  00000+0  63401-3 0  9996,2 46159  53.0437 296.5337 0001565   2.8618 357.2407 15.68959380319157
STARLINK-1598,46160,53.0451,0.0003693,15.68897189,359.56455607565204,364.54286093295286,1 46160U 20057AV  26142.37271560  .00068604  00000+0  58553-3 0  9999,2 46160  53.0451 284.3809 0003693 145.5060 214.6196 15.68897189319287
